{
  "norad_id": 65930,
  "name": "STARLINK-35513",
  "history": [
    {
      "epoch": "2026-03-28T16:22:33.909024",
      "apogee_km": 476.1872148351231,
      "perigee_km": 474.17508062694833,
      "latitude_deg": -36.82092924997317,
      "longitude_deg": 118.50434335996397,
      "semi_major_axis_km": 6853.318147731035,
      "eccentricity": 0.0001468,
      "inclination_deg": 53.1615,
      "raan_deg": 77.621,
      "arg_perigee_deg": 91.2667,
      "mean_anomaly_deg": 268.8502,
      "mean_motion_rev_day": 15.30211361
    },
    {
      "epoch": "2026-03-29T04:54:59.170464",
      "apogee_km": 475.8532049094065,
      "perigee_km": 474.4140180809918,
      "latitude_deg": -15.680617844831966,
      "longitude_deg": 168.66574496007524,
      "semi_major_axis_km": 6853.270611495199,
      "eccentricity": 0.000105,
      "inclination_deg": 53.1601,
      "raan_deg": 75.1947,
      "arg_perigee_deg": 104.9361,
      "mean_anomaly_deg": 255.1756,
      "mean_motion_rev_day": 15.30227282
    }
  ]
}